AMC-1 (GE-1)            
1 24315U 96054A   22281.05177204  .00000053  00000+0  00000+0 0  9996
2 24315   5.8826  72.1725 0003364 123.4414  68.8032  1.00272253 95503
AMC-3 (GE-3)            
1 24936U 97050A   22280.84829796 -.00000273  00000+0  00000+0 0  9993
2 24936   4.8161  78.4009 0002939 120.3314  51.1345  1.00270823 38914
ASTRA 1G                
1 25071U 97076A   22281.08176896  .00000104  00000+0  00000+0 0  9997
2 25071   6.4993  67.4024 0003428 129.8606 228.2951  1.00273938 91024
ASTRA 2A                
1 25462U 98050A   22281.08926819  .00000056  00000+0  00000+0 0  9998
2 25462   3.6813  84.3308 0003291 124.7358 256.9797  1.00271653 88223
AMC-4 (GE-4)            
1 25954U 99060A   22280.69226757  .00000072  00000+0  00000+0 0  9994
2 25954   1.7985  90.5003 0002986 113.8004 286.3340  1.00272203 30035
NSS-11 (AAP-1)          
1 26554U 00059A   22281.47164181  .00000009  00000+0  00000+0 0  9990
2 26554   0.0526  70.6849 0002867 112.7741 179.4213  1.00271300 80668
AMC-6 (GE-6)            
1 26580U 00067A   22280.76307427  .00000087  00000+0  00000+0 0  9997
2 26580   0.0467  70.3234 0002712 125.2807 316.4933  1.00271208 80396
ASTRA 2D                
1 26638U 00081A   22281.08255376  .00000118  00000+0  00000+0 0  9993
2 26638   7.5288  59.5186 0001770 146.1979 224.3879  1.00269780 79872
AMC-8 (GE-8)            
1 26639U 00081B   22280.69226757  .00000073  00000+0  00000+0 0  9991
2 26639   2.7240  87.3359 0002150  51.6317 351.5830  1.00271200 79812
ASTRA 2C                
1 26853U 01025A   22280.84821076 -.00000272  00000+0  00000+0 0  9992
2 26853   4.8403  78.2065 0003021 125.1032  46.0623  1.00271377 31523
ASTRA 3A                
1 27400U 02015B   22281.41923439 -.00000214  00000+0  00000+0 0  9997
2 27400   7.6285  58.4058 0002118 154.5048 228.2283  1.00268753 75205
NSS-7                   
1 27414U 02019A   22281.14568682 -.00000169  00000+0  00000+0 0  9990
2 27414   6.1587  70.3577 0002530 144.9112 193.9630  1.00272081 75046
NSS-6                   
1 27603U 02057A   22280.82885229  .00000092  00000+0  00000+0 0  9999
2 27603   1.8899  90.2923 0003527 109.1887 305.8675  1.00269320 72513
AMC-11 (GE-11)          
1 28252U 04017A   22280.69305236  .00000052  00000+0  00000+0 0  9994
2 28252   0.0488  60.5057 0002840 140.1883 294.1246  1.00272102 67368
AMC-15                  
1 28446U 04041A   22280.62651847 -.00000106  00000+0  00000+0 0  9992
2 28446   0.0485  53.8032 0002544 130.8601 312.0875  1.00271309 65806
NSS-10 (AMC-12)         
1 28526U 05003A   22281.14219880 -.00000264  00000+0  00000+0 0  9990
2 28526   3.0615  86.1049 0002983  98.7551 205.6608  1.00271438 64806
ASTRA 1KR               
1 29055U 06012A   22281.14424443  .00000103  00000+0  00000+0 0  9993
2 29055   0.0160 136.6033 0004921  72.7939 238.5198  1.00269147 60232
AMC-18                  
1 29644U 06054B   22281.11368868 -.00000232  00000+0  00000+0 0  9992
2 29644   0.0476  72.7003 0002522 120.8984 141.0719  1.00271837 58012
ASTRA 1L                
1 31306U 07016A   22281.14424443  .00000104  00000+0  00000+0 0  9991
2 31306   0.0112 349.8799 0003734 251.4454 206.6176  1.00275453 56523
ASTRA 4A (SIRIUS 4)     
1 32299U 07057A   22280.86091163  .00000016  00000+0  00000+0 0  9997
2 32299   0.0507  71.1175 0003006 126.4760 133.6369  1.00272194 38149
AMC-21                  
1 33275U 08038B   22281.12475873  .00000020  00000+0  00000+0 0  9991
2 33275   0.0498  66.3712 0002471 130.6743  99.7141  1.00271527 51941
ASTRA 1M                
1 33436U 08057A   22280.87322122  .00000103  00000+0  00000+0 0  9992
2 33436   0.0533  98.0638 0005034  77.4768 174.5360  1.00274747 32202
CIEL-2                  
1 33453U 08063A   22281.41822126  .00000042  00000+0  00000+0 0  9990
2 33453   0.0097 204.0117 0003099 353.1088 201.6340  1.00272077 50614
NSS-9                   
1 33749U 09008A   22281.49961537  .00000056  00000+0  00000+0 0  9991
2 33749   0.0502  60.1367 0002194 136.1874 183.7354  1.00269187 50059
SES-7 (PROTOSTAR 2)     
1 34941U 09027A   22281.38644705 -.00000361  00000+0  00000+0 0  9990
2 34941   0.0892  87.7997 0001414 146.6770  29.9154  1.00273979 49090
NSS-12                  
1 36032U 09058A   22281.08926819  .00000055  00000+0  00000+0 0  9992
2 36032   0.0527  77.3037 0002960 126.8064 261.7348  1.00272356 47391
SES-1                   
1 36516U 10016A   22281.13730120 -.00000131  00000+0  00000+0 0  9995
2 36516   0.0420 287.5061 0002565 267.4857 130.1971  1.00270486 45622
ASTRA 3B                
1 36581U 10021A   22280.87655378  .00000120  00000+0  00000+0 0  9991
2 36581   0.0777  60.8471 0003675 138.5824 156.1346  1.00270780 45352
SES-3                   
1 37748U 11035A   22280.84201955 -.00000118  00000+0  00000+0 0  9996
2 37748   0.0498  50.4758 0002894 145.3153  20.8084  1.00271281 41072
ASTRA 1N                
1 37775U 11041A   22281.14424443  .00000104  00000+0  00000+0 0  9990
2 37775   0.0652  43.2652 0001362 109.7577 294.8432  1.00273763 40885
SES-2                   
1 37809U 11049A   22281.11924285 -.00000212  00000+0  00000+0 0  9993
2 37809   0.0506  75.4150 0002900 117.2630 139.9971  1.00271455 40483
QUETZSAT 1              
1 37826U 11054A   22280.84733876 -.00000258  00000+0  00000+0 0  9991
2 37826   0.0484  66.3669 0002887 128.0663  50.0918  1.00272019 36375
SES-4                   
1 38087U 12007A   22281.43222726 -.00000184  00000+0  00000+0 0  9991
2 38087   0.0151 269.4780 0002268 296.3736 304.8157  1.00271877 38973
SES-5                   
1 38652U 12036A   22281.15057003  .00000017  00000+0  00000+0 0  9998
2 38652   0.0638 290.8159 0001999 259.9264 245.2167  1.00270342 37558
ASTRA 2F                
1 38778U 12051A   22281.14424443  .00000134  00000+0  00000+0 0  9999
2 38778   0.0554 236.0722 0004640 339.8218 241.0174  1.00274518 36779
SES-6                   
1 39172U 13026A   22281.14158840 -.00000278  00000+0  00000+0 0  9996
2 39172   0.0128 140.7575 0002594  66.6794 179.8051  1.00270298 34201
O3B FM5                 
1 39188U 13031A   22280.61580028 -.00000027  00000+0  00000+0 0  9999
2 39188   0.0638  16.9309 0002649 183.6346 159.4267  5.00115288169570
O3B FM4                 
1 39189U 13031B   22280.47191585 -.00000027  00000+0  00000+0 0  9990
2 39189   0.0508 352.0709 0002602 207.8886 160.0332  5.00115790169582
O3B FM2                 
1 39190U 13031C   22280.76321428 -.00000027  00000+0  00000+0 0  9995
2 39190   0.0508 346.3504 0002618 213.1605 160.4819  5.00115110169657
O3B PFM                 
1 39191U 13031D   22280.78952388 -.00000027  00000+0  00000+0 0  9993
2 39191   0.0573  11.0469 0002660 186.1486 162.7984  5.00115662169211
ASTRA 2E                
1 39285U 13056A   22281.15527887  .00000134  00000+0  00000+0 0  9996
2 39285   0.0818 321.5585 0002820 234.7374 264.8849  1.00274475 33071
SES-8                   
1 39460U 13071A   22281.09685462 -.00000286  00000+0  00000+0 0  9994
2 39460   0.0166 226.3337 0002101 281.5323 358.7226  1.00272349 32355
ASTRA 5B                
1 39617U 14011B   22280.83660580  .00000137  00000+0  00000+0 0  9992
2 39617   0.0874 299.0993 0004565 252.1491 157.8972  1.00271464 31145
O3B FM3                 
1 40079U 14038A   22280.64441589 -.00000027  00000+0  00000+0 0  9999
2 40079   0.0538 359.9085 0004843 180.6727 179.4210  5.00115280145586
O3B FM7                 
1 40080U 14038B   22280.79037668 -.00000027  00000+0  00000+0 0  9996
2 40080   0.0559 355.7465 0001900 246.2801 117.9570  5.00115439150421
O3B FM6                 
1 40081U 14038C   22280.61686629 -.00000027  00000+0  00000+0 0  9995
2 40081   0.0528 359.4325 0002723 197.9375 162.6235  5.00115310150362
O3B FM8                 
1 40082U 14038D   22280.47089021 -.00000027  00000+0  00000+0 0  9993
2 40082   0.0508 356.7171 0002645 196.6604 166.6182  5.00115643150470
O3B FM10                
1 40348U 14083A   22280.69685784 -.00000027  00000+0  00000+0 0  9990
2 40348   0.0524   9.1864 0002641 188.0878 162.7196  5.00115099142439
O3B FM11                
1 40349U 14083B   22280.51041305 -.00000027  00000+0  00000+0 0  9997
2 40349   0.0570   7.8201 0002589 204.4284 147.7385  5.00115349142448
O3B FM12                
1 40350U 14083C   22280.13784541 -.00000027  00000+0  00000+0 0  9993
2 40350   0.0562   7.2555 0002785 191.3265 161.4106  5.00115194142439
O3B FM9                 
1 40351U 14083D   22280.76437392 -.00000027  00000+0  00000+0 0  9992
2 40351   0.0581   7.7895 0002617 190.5838 161.6201  5.00116113142614
ASTRA 2G                
1 40364U 14089A   22280.83660580  .00000133  00000+0  00000+0 0  9994
2 40364   0.0131  56.8186 0001811  49.2639 239.7276  1.00271721 28447
SES-9                   
1 41380U 16013A   22280.95599043 -.00000362  00000+0  00000+0 0  9995
2 41380   0.0289 274.8272 0001469 222.9696 331.2502  1.00270881 24239
SES-10                  
1 42432U 17017A   22281.04979904 -.00000289  00000+0  00000+0 0  9996
2 42432   0.0149 184.5306 0002992  16.8671 126.2931  1.00268115 20201
SES-15                  
1 42709U 17026A   22281.41665748  .00000044  00000+0  00000+0 0  9990
2 42709   0.0351 349.0540 0000411 212.2986 196.5391  1.00266882 20676
SES-11 (ECHOSTAR 105)   
1 42967U 17063A   22281.13730120 -.00000106  00000+0  00000+0 0  9993
2 42967   0.0375 275.5073 0002642 283.3585 122.3781  1.00271337 18289
SES-14                  
1 43175U 18012B   22280.92494708 -.00000295  00000+0  00000+0 0  9994
2 43175   0.0270 281.0509 0001232 268.0569 112.9250  1.00271260 17524
O3B FM15                
1 43231U 18024A   22280.83031516 -.00000027  00000+0  00000+0 0  9997
2 43231   0.0493  10.8738 0002958 188.4546 160.6633  5.00115985 83749
O3B FM16                
1 43232U 18024B   22280.68381933 -.00000027  00000+0  00000+0 0  9992
2 43232   0.0462  14.1728 0002938 185.4952 160.3235  5.00115852 83476
O3B FM14                
1 43233U 18024C   22280.72348007 -.00000027  00000+0  00000+0 0  9993
2 43233   0.0447  14.7554 0002790 187.2477 157.9877  5.00115263 83482
O3B FM13                
1 43234U 18024D   22280.77699954 -.00000027  00000+0  00000+0 0  9999
2 43234   0.0579  22.0466 0003749 182.2674 155.6712  5.00115021 83612
SES-12                  
1 43488U 18049A   22281.07549432 -.00000286  00000+0  00000+0 0  9993
2 43488   0.0443  42.3809 0001948 200.2605 256.2423  1.00271670 15894
O3B FM20                
1 44112U 19020A   22281.34985586 -.00000027  00000+0  00000+0 0  9995
2 44112   0.0520   8.5936 0003140 197.2162 154.1775  5.00115427 64227
O3B FM19                
1 44113U 19020B   22278.57820303 -.00000026  00000+0  00000+0 0  9991
2 44113   0.0720  19.4643 0001589 204.6594 135.8665  5.00114724 63865
O3B FM17                
1 44114U 19020C   22281.05737936 -.00000027  00000+0  00000+0 0  9999
2 44114   0.0351 355.6043 0003078 204.1600 160.2267  5.00115517 64203
O3B FM18                
1 44115U 19020D   22281.20378065 -.00000027  00000+0  00000+0 0  9991
2 44115   0.0524   8.9265 0002893 188.5903 162.4762  5.00115727 64202
SES-17                  
1 49332U 21095A   22281.38816701 -.00000288  00000+0  00000+0 0  9994
2 49332   0.0109 144.7404 0001163  45.1531 259.7608  1.00269693  4329
SES-22                  
1 52933U 22071A   22280.69226757  .00000071  00000+0  00000+0 0  9998
2 52933   0.0029 190.9817 0002832  26.6800 272.8744  1.00271606  1038
